NORAD_CAT_ID,OBJECT_NAME,OBJECT_TYPE,EPOCH,MEAN_MOTION,ECCENTRICITY,INCLINATION,RA_OF_ASC_NODE,ARG_OF_PERICENTER,MEAN_ANOMALY,BSTAR,MEAN_MOTION_DOT,MEAN_MOTION_DDOT,TLE_LINE0,TLE_LINE1,TLE_LINE2,SEMIMAJOR_AXIS,PERIOD,APOGEE,PERIGEE,DECAYED
53634.0,STARLINK-4592,PAYLOAD,2024-07-08 23:45:39,15.08839567,0.0001311,53.2152,76.5895,101.7039,258.41,4.0144e-05,3.51e-06,0.0,0 STARLINK-4592,1 53634U 22104AY  24190.99003653  .00000351  00000-0  40144-4 0  9997,2 53634  53.2152  76.5895 0001311 101.7039 258.4100 15.08839567103318,6917.882,95.438,540.654,538.84,0.0
53634.0,STARLINK-4592,PAYLOAD,2024-07-09 09:17:57,15.08841418,0.0001332,53.217,74.8028,82.7766,277.3378,2.3425e-05,8.5e-07,0.0,0 STARLINK-4592,1 53634U 22104AY  24191.38747552  .00000085  00000-0  23425-4 0  9991,2 53634  53.2170  74.8028 0001332  82.7766 277.3378 15.08841418104399,6917.876,95.437,540.663,538.82,0.0
53634.0,STARLINK-4592,PAYLOAD,2024-07-09 20:25:41,15.08828769,0.0001598,53.2194,72.7258,93.8325,266.285,-7.3508e-05,-1.457e-05,0.0,0 STARLINK-4592,1 53634U 22104AY  24191.85116984 -.00001457  00000-0 -73508-4 0  9995,2 53634  53.2194  72.7258 0001598  93.8325 266.2850 15.08828769103446,6917.915,95.438,540.885,538.674,0.0
53634.0,STARLINK-4592,PAYLOAD,2024-07-09 22:01:04,15.08830326,0.0001678,53.2182,72.4217,76.2726,283.8453,-9.1484e-05,-1.743e-05,0.0,0 STARLINK-4592,1 53634U 22104AY  24191.91741005 -.00001743  00000-0 -91484-4 0  9991,2 53634  53.2182  72.4217 0001678  76.2726 283.8453 15.08830326104474,6917.91,95.438,540.936,538.614,0.0
53634.0,STARLINK-4592,PAYLOAD,2024-07-10 01:11:50,15.08836286,0.0001736,53.2193,71.8269,81.1449,278.974,-3.7357e-05,-8.83e-06,0.0,0 STARLINK-4592,1 53634U 22104AY  24192.04988476 -.00000883  00000-0 -37357-4 0  9994,2 53634  53.2193  71.8269 0001736  81.1449 278.9740 15.08836286103472,6917.892,95.438,540.958,538.556,0.0
53634.0,STARLINK-4592,PAYLOAD,2024-07-10 09:08:46,15.08834386,0.0001876,53.2207,70.3421,80.5462,279.5742,-9.2842e-05,-1.765e-05,0.0,0 STARLINK-4592,1 53634U 22104AY  24192.38108948 -.00001765  00000-0 -92842-4 0  9999,2 53634  53.2207  70.3421 0001876  80.5462 279.5742 15.08834386104542,6917.898,95.438,541.06,538.465,0.0
53634.0,STARLINK-4592,PAYLOAD,2024-07-10 20:16:26,15.08845456,0.0001117,53.2183,68.2655,88.7488,271.3632,6.829e-05,7.99e-06,0.0,0 STARLINK-4592,1 53634U 22104AY  24192.84475422  .00000799  00000-0  68290-4 0  9998,2 53634  53.2183  68.2655 0001117  88.7488 271.3632 15.08845456103598,6917.864,95.437,540.501,538.956,0.0
53634.0,STARLINK-4592,PAYLOAD,2024-07-10 21:51:48,15.08866228,0.0001763,53.2182,67.9641,121.1994,238.9171,0.00012413,1.689e-05,0.0,0 STARLINK-4592,1 53634U 22104AY  24192.91097768  .00001689  00000-0  12413-3 0  9993,2 53634  53.2182  67.9641 0001763 121.1994 238.9171 15.08866228104621,6917.8,95.436,540.885,538.446,0.0
53634.0,STARLINK-4592,PAYLOAD,2024-07-11 01:02:33,15.08877744,0.0001342,53.2176,67.3708,91.6776,268.437,0.00025054,3.706e-05,0.0,0 STARLINK-4592,1 53634U 22104AY  24193.04344536  .00003706  00000-0  25054-3 0  9993,2 53634  53.2176  67.3708 0001342  91.6776 268.4370 15.08877744103627,6917.765,95.435,540.558,538.702,0.0
53634.0,STARLINK-4592,PAYLOAD,2024-07-11 21:42:37,15.08829403,0.0001617,53.2206,63.503,86.5081,273.6096,1.6974e-06,-2.61e-06,0.0,0 STARLINK-4592,1 53634U 22104AY  24193.90460481 -.00000261  00000-0  16974-5 0  9993,2 53634  53.2206  63.5030 0001617  86.5081 273.6096 15.08829403103750,6917.913,95.438,540.896,538.659,0.0
53634.0,STARLINK-4592,PAYLOAD,2024-07-12 15:11:52,15.08840662,0.0001335,53.2185,60.2316,81.4667,278.6477,-8.7147e-05,-1.675e-05,0.0,0 STARLINK-4592,1 53634U 22104AY  24194.63324195 -.00001675  00000-0 -87147-4 0  9995,2 53634  53.2185  60.2316 0001335  81.4667 278.6477 15.08840662104881,6917.878,95.438,540.667,538.82,0.0
53634.0,STARLINK-4592,PAYLOAD,2024-07-12 21:33:24,15.0884619,0.0001289,53.2178,59.0424,83.1859,276.928,-3.0607e-05,-7.75e-06,0.0,0 STARLINK-4592,1 53634U 22104AY  24194.89819531 -.00000775  00000-0 -30607-4 0  9995,2 53634  53.2178  59.0424 0001289  83.1859 276.9280 15.08846190103906,6917.861,95.437,540.618,538.835,0.0
53634.0,STARLINK-4592,PAYLOAD,2024-07-13 00:44:09,15.08862456,0.0001386,53.2176,58.4471,98.4057,261.7092,-0.00018651,-3.257e-05,0.0,0 STARLINK-4592,1 53634U 22104AY  24195.03067024 -.00003257  00000-0 -18651-3 0  9996,2 53634  53.2176  58.4471 0001386  98.4057 261.7092 15.08862456103924,6917.812,95.436,540.636,538.718,0.0
53634.0,STARLINK-4592,PAYLOAD,2024-07-13 21:24:11,15.08833144,0.0001313,53.2175,54.5816,88.5613,271.553,5.4752e-05,5.83e-06,0.0,0 STARLINK-4592,1 53634U 22104AY  24195.89180045  .00000583  00000-0  54752-4 0  9999,2 53634  53.2175  54.5816 0001313  88.5613 271.5530 15.08833144104054,6917.901,95.438,540.675,538.858,0.0
53634.0,STARLINK-4592,PAYLOAD,2024-07-14 14:53:26,15.08833873,0.000141,53.2166,51.3085,93.8494,266.2659,-7.1844e-05,-1.431e-05,0.0,0 STARLINK-4592,1 53634U 22104AY  24196.62044791 -.00001431  00000-0 -71844-4 0  9994,2 53634  53.2166  51.3085 0001410  93.8494 266.2659 15.08833873105188,6917.899,95.438,540.74,538.789,0.0
53634.0,STARLINK-4592,PAYLOAD,2024-07-14 21:14:58,15.08844981,0.0001248,53.2175,50.1232,85.5773,274.5362,3.968e-05,3.44e-06,0.0,0 STARLINK-4592,1 53634U 22104AY  24196.88539754  .00000344  00000-0  39680-4 0  9992,2 53634  53.2175  50.1232 0001248  85.5773 274.5362 15.08844981104203,6917.865,95.437,540.594,538.867,0.0
53634.0,STARLINK-4592,PAYLOAD,2024-07-15 06:47:15,15.08862248,0.0001102,53.217,48.3331,80.7274,279.3843,0.00018867,2.718e-05,0.0,0 STARLINK-4592,1 53634U 22104AY  24197.28281614  .00002718  00000-0  18867-3 0  9996,2 53634  53.2170  48.3331 0001102  80.7274 279.3843 15.08862248104268,6917.812,95.436,540.44,538.915,0.0
53634.0,STARLINK-4592,PAYLOAD,2024-07-15 21:05:46,15.08826301,0.0001283,53.2175,45.6594,73.2972,286.8161,-0.0001159,-2.131e-05,0.0,0 STARLINK-4592,1 53634U 22104AY  24197.87900529 -.00002131  00000-0 -11590-3 0  9991,2 53634  53.2175  45.6594 0001283  73.2972 286.8161 15.08826301104352,6917.922,95.438,540.675,538.9,0.0
53634.0,STARLINK-4592,PAYLOAD,2024-07-15 22:41:09,15.08823804,0.0001303,53.218,45.3642,82.2742,277.8398,-0.00012282,-2.241e-05,0.0,0 STARLINK-4592,1 53634U 22104AY  24197.94524750 -.00002241  00000-0 -12282-3 0  9998,2 53634  53.2180  45.3642 0001303  82.2742 277.8398 15.08823804105388,6917.93,95.439,540.696,538.893,0.0
53634.0,STARLINK-4592,PAYLOAD,2024-07-16 06:38:05,15.0882167,0.0001282,53.2178,43.8772,80.6097,279.504,-0.00011228,-2.073e-05,0.0,0 STARLINK-4592,1 53634U 22104AY  24198.27645096 -.00002073  00000-0 -11228-3 0  9994,2 53634  53.2178  43.8772 0001282  80.6097 279.5040 15.08821670105431,6917.936,95.439,540.688,538.915,0.0
53634.0,STARLINK-4592,PAYLOAD,2024-07-16 20:56:32,15.08836757,0.0001248,53.2181,41.2007,83.6839,276.4295,-4.1716e-05,-9.52e-06,0.0,0 STARLINK-4592,1 53634U 22104AY  24198.87260255 -.00000952  00000-0 -41716-4 0  9990,2 53634  53.2181  41.2007 0001248  83.6839 276.4295 15.08836757104504,6917.89,95.438,540.619,538.892,0.0
53634.0,STARLINK-4592,PAYLOAD,2024-07-16 22:31:55,15.08844462,0.0001297,53.2182,40.9052,89.9652,270.1489,4.737e-07,-2.8e-06,0.0,0 STARLINK-4592,1 53634U 22104AY  24198.93883598 -.00000280  00000-0  47370-6 0  9995,2 53634  53.2182  40.9052 0001297  89.9652 270.1489 15.08844462104516,6917.867,95.437,540.629,538.835,0.0
53634.0,STARLINK-4592,PAYLOAD,2024-07-17 06:28:51,15.08842606,0.0001619,53.2184,39.4173,78.8275,281.2899,-0.00017525,-3.076e-05,0.0,0 STARLINK-4592,1 53634U 22104AY  24199.27004434 -.00003076  00000-0 -17525-3 0  9990,2 53634  53.2184  39.4173 0001619  78.8275 281.2899 15.08842606104562,6917.872,95.437,540.857,538.617,0.0
53634.0,STARLINK-4592,PAYLOAD,2024-07-17 20:47:20,15.08814884,0.0001556,53.2188,36.7412,75.4809,284.6356,5.2355e-05,5.45e-06,0.0,0 STARLINK-4592,1 53634U 22104AY  24199.86621418  .00000545  00000-0  52355-4 0  9999,2 53634  53.2188  36.7412 0001556  75.4809 284.6356 15.08814884104650,6917.957,95.439,540.899,538.746,0.0
53634.0,STARLINK-4592,PAYLOAD,2024-07-18 06:19:39,15.088206,0.0001642,53.2196,34.9588,79.4689,280.6488,9.3652e-05,1.202e-05,0.0,0 STARLINK-4592,1 53634U 22104AY  24200.26365489  .00001202  00000-0  93652-4 0  9995,2 53634  53.2196  34.9588 0001642  79.4689 280.6488 15.08820600104711,6917.94,95.439,540.941,538.669,0.0
53634.0,STARLINK-4592,PAYLOAD,2024-07-18 20:38:07,15.08842498,0.000122,53.2173,32.2811,91.4402,268.6729,1.9419e-05,2.1e-07,0.0,0 STARLINK-4592,1 53634U 22104AY  24200.85980738  .00000021  00000-0  19419-4 0  9997,2 53634  53.2173  32.2811 0001220  91.4402 268.6729 15.08842498104808,6917.873,95.437,540.582,538.894,0.0
53634.0,STARLINK-4592,PAYLOAD,2024-07-19 06:10:26,15.08844766,0.0001216,53.2174,30.4985,88.7841,271.329,2.8583e-05,1.67e-06,0.0,0 STARLINK-4592,1 53634U 22104AY  24201.25724544  .00000167  00000-0  28583-4 0  9996,2 53634  53.2174  30.4985 0001216  88.7841 271.3290 15.08844766105885,6917.866,95.437,540.572,538.89,0.0
53634.0,STARLINK-4592,PAYLOAD,2024-07-19 18:53:31,15.08836682,0.00013,53.2189,28.1161,84.8323,275.2817,0.00015354,2.156e-05,0.0,0 STARLINK-4592,1 53634U 22104AY  24201.78716743  .00002156  00000-0  15354-3 0  9997,2 53634  53.2189  28.1161 0001300  84.8323 275.2817 15.08836682105962,6917.891,95.438,540.655,538.856,0.0
53634.0,STARLINK-4592,PAYLOAD,2024-07-20 06:01:13,15.08837186,0.0001122,53.2169,26.034,91.9241,268.188,5.285e-05,5.53e-06,0.0,0 STARLINK-4592,1 53634U 22104AY  24202.25084900  .00000553  00000-0  52850-4 0  9995,2 53634  53.2169  26.0340 0001122  91.9241 268.1880 15.08837186105013,6917.889,95.438,540.53,538.978,0.0
53634.0,STARLINK-4592,PAYLOAD,2024-07-20 18:44:18,15.0883404,0.0001029,53.2184,23.6562,80.0824,280.0284,2.5142e-05,1.12e-06,0.0,0 STARLINK-4592,1 53634U 22104AY  24202.78077267  .00000112  00000-0  25142-4 0  9996,2 53634  53.2184  23.6562 0001029  80.0824 280.0284 15.08834040106110,6917.899,95.438,540.475,539.052,0.0
